{"type": "FeatureCollection", "features": [ {"type": "Feature", "properties": {"norad_id": 66776, "name": "TRANSPORTER-15 DQ", "group": "last-30-days", "lat": -61.197440556491884, "lon": 81.00145069388896, "alt_km": 518.7427333351161, "timestamp": "2025-12-21T14:40:46.634248+00:00", "meta": {"OBJECT_NAME": "TRANSPORTER-15 DQ", "OBJECT_ID": "2025-276DQ", "EPOCH": "2025-12-21T03:52:59.829312", "MEAN_MOTION": 15.18658115, "ECCENTRICITY": 0.00028528, "INCLINATION": 97.4386, "RA_OF_ASC_NODE": 66.812, "ARG_OF_PERICENTER": 87.8499, "MEAN_ANOMALY": 272.3062, "EPHEMERIS_TYPE": 0, "CLASSIFICATION_TYPE": "U", "NORAD_CAT_ID": 66776, "ELEMENT_SET_NO": 999, "REV_AT_EPOCH": 340, "BSTAR": 0.00035509935, "MEAN_MOTION_DOT": 7.293e-05, "MEAN_MOTION_DDOT": 0}, "tle": {"line1": "1 66776U 25276DQ  25355.16180358  .00007293  00000+0  35510-3 0  9993", "line2": "2 66776  97.4386  66.8120 0002852  87.8499 272.3062 15.18658115  3406"}}, "geometry": {"type": "Point", "coordinates": [81.00145069388896, -61.197440556491884]}}, {"type": "Feature", "properties": {"norad_id": 66777, "name": "TRANSPORTER-15 DR", "group": "last-30-days", "lat": -49.953345011392024, "lon": 76.2377968894477, "alt_km": 518.4218467411392, "timestamp": "2025-12-21T14:40:46.634257+00:00", "meta": {"OBJECT_NAME": "TRANSPORTER-15 DR", "OBJECT_ID": "2025-276DR", "EPOCH": "2025-12-21T03:50:02.380128", "MEAN_MOTION": 15.18872016, "ECCENTRICITY": 0.00033776, "INCLINATION": 97.4476, "RA_OF_ASC_NODE": 66.8386, "ARG_OF_PERICENTER": 116.541, "MEAN_ANOMALY": 243.6171, "EPHEMERIS_TYPE": 0, "CLASSIFICATION_TYPE": "U", "NORAD_CAT_ID": 66777, "ELEMENT_SET_NO": 999, "REV_AT_EPOCH": 340, "BSTAR": 0.00043914256, "MEAN_MOTION_DOT": 9.093e-05, "MEAN_MOTION_DDOT": 0}, "tle": {"line1": "1 66777U 25276DR  25355.15974977  .00009093  00000+0  43914-3 0  9998", "line2": "2 66777  97.4476  66.8386 0003377 116.5410 243.6171 15.18872016  3407"}}, "geometry": {"type": "Point", "coordinates": [76.2377968894477, -49.953345011392024]}}, {"type": "Feature", "properties": {"norad_id": 66791, "name": "STARLINK-35867", "group": "last-30-days", "lat": -25.152848051114045, "lon": 168.1335925036273, "alt_km": 396.185307779765, "timestamp": "2025-12-21T14:40:46.634270+00:00", "meta": {"OBJECT_NAME": "STARLINK-35867", "OBJECT_ID": "2025-278A", "EPOCH": "2025-12-21T06:00:00.999648", "MEAN_MOTION": 15.5921033, "ECCENTRICITY": 0.00016653, "INCLINATION": 42.9993, "RA_OF_ASC_NODE": 200.5338, "ARG_OF_PERICENTER": 271.193, "MEAN_ANOMALY": 178.951, "EPHEMERIS_TYPE": 0, "CLASSIFICATION_TYPE": "U", "NORAD_CAT_ID": 66791, "ELEMENT_SET_NO": 999, "REV_AT_EPOCH": 432, "BSTAR": -0.028251825, "MEAN_MOTION_DOT": -0.01998604, "MEAN_MOTION_DDOT": 0}, "tle": {"line1": "1 66791U 25278A   25355.25001157 -.01998604  00000+0 -28252-1 0  9992", "line2": "2 66791  42.9993 200.5338 0001665 271.1930 178.9510 15.59210330  4328"}}, "geometry": {"type": "Point", "coordinates": [168.1335925036273, -25.152848051114045]}}, {"type": "Feature", "properties": {"norad_id": 66792, "name": "STARLINK-35990", "group": "last-30-days", "lat": -24.015322788535748, "lon": 169.82426228156822, "alt_km": 396.04698581829143, "timestamp": "2025-12-21T14:40:46.634284+00:00", "meta": {"OBJECT_NAME": "STARLINK-35990", "OBJECT_ID": "2025-278B", "EPOCH": "2025-12-21T06:00:00.999648", "MEAN_MOTION": 15.59208024, "ECCENTRICITY": 0.00017168, "INCLINATION": 42.9995, "RA_OF_ASC_NODE": 200.5294, "ARG_OF_PERICENTER": 273.8211, "MEAN_ANOMALY": 178.24, "EPHEMERIS_TYPE": 0, "CLASSIFICATION_TYPE": "U", "NORAD_CAT_ID": 66792, "ELEMENT_SET_NO": 999, "REV_AT_EPOCH": 432, "BSTAR": -0.028168142, "MEAN_MOTION_DOT": -0.01993302, "MEAN_MOTION_DDOT": 0}, "tle": {"line1": "1 66792U 25278B   25355.25001157 -.01993302  00000+0 -28168-1 0  9999", "line2": "2 66792  42.9995 200.5294 0001716 273.8211 178.2400 15.59208024  4328"}}, "geometry": {"type": "Point", "coordinates": [169.82426228156822, -24.015322788535748]}}, {"type": "Feature", "properties": {"norad_id": 66793, "name": "STARLINK-36051", "group": "last-30-days", "lat": -21.686423772738376, "lon": 173.11601018947954, "alt_km": 395.98857691501325, "timestamp": "2025-12-21T14:40:46.634294+00:00", "meta": {"OBJECT_NAME": "STARLINK-36051", "OBJECT_ID": "2025-278C", "EPOCH": "2025-12-21T06:00:00.999648", "MEAN_MOTION": 15.59209841, "ECCENTRICITY": 0.00016591, "INCLINATION": 42.9994, "RA_OF_ASC_NODE": 200.5195, "ARG_OF_PERICENTER": 272.5139, "MEAN_ANOMALY": 183.38, "EPHEMERIS_TYPE": 0, "CLASSIFICATION_TYPE": "U", "NORAD_CAT_ID": 66793, "ELEMENT_SET_NO": 999, "REV_AT_EPOCH": 422, "BSTAR": -0.028210593, "MEAN_MOTION_DOT": -0.01996012, "MEAN_MOTION_DDOT": 0}, "tle": {"line1": "1 66793U 25278C   25355.25001157 -.01996012  00000+0 -28211-1 0  9990", "line2": "2 66793  42.9994 200.5195 0001659 272.5139 183.3800 15.59209841  4227"}}, "geometry": {"type": "Point", "coordinates": [173.11601018947954, -21.686423772738376]}}, {"type": "Feature", "properties": {"norad_id": 66794, "name": "STARLINK-36062", "group": "last-30-days", "lat": -22.859383867913298, "lon": 171.48378094547195, "alt_km": 396.06402652786437, "timestamp": "2025-12-21T14:40:46.634304+00:00", "meta": {"OBJECT_NAME": "STARLINK-36062", "OBJECT_ID": "2025-278D", "EPOCH": "2025-12-21T06:00:00.999648", "MEAN_MOTION": 15.59209507, "ECCENTRICITY": 0.00016133, "INCLINATION": 42.9994, "RA_OF_ASC_NODE": 200.524, "ARG_OF_PERICENTER": 273.0707, "MEAN_ANOMALY": 180.9085, "EPHEMERIS_TYPE": 0, "CLASSIFICATION_TYPE": "U", "NORAD_CAT_ID": 66794, "ELEMENT_SET_NO": 999, "REV_AT_EPOCH": 432, "BSTAR": -0.028240429, "MEAN_MOTION_DOT": -0.01997804, "MEAN_MOTION_DDOT": 0}, "tle": {"line1": "1 66794U 25278D   25355.25001157 -.01997804  00000+0 -28240-1 0  9993", "line2": "2 66794  42.9994 200.5240 0001613 273.0707 180.9085 15.59209507  4324"}}, "geometry": {"type": "Point", "coordinates": [171.48378094547195, -22.859383867913298]}}, {"type": "Feature", "properties": {"norad_id": 66795, "name": "STARLINK-36047", "group": "last-30-days", "lat": -20.497288502317538, "lon": 174.72147513867685, "alt_km": 396.0059010932955, "timestamp": "2025-12-21T14:40:46.634314+00:00", "meta": {"OBJECT_NAME": "STARLINK-36047", "OBJECT_ID": "2025-278E", "EPOCH": "2025-12-21T06:00:00.999648", "MEAN_MOTION": 15.59214635, "ECCENTRICITY": 0.00015993, "INCLINATION": 42.999, "RA_OF_ASC_NODE": 200.5147, "ARG_OF_PERICENTER": 270.4829, "MEAN_ANOMALY": 187.3272, "EPHEMERIS_TYPE": 0, "CLASSIFICATION_TYPE": "U", "NORAD_CAT_ID": 66795, "ELEMENT_SET_NO": 999, "REV_AT_EPOCH": 422, "BSTAR": -0.028354697, "MEAN_MOTION_DOT": -0.02005214, "MEAN_MOTION_DDOT": 0}, "tle": {"line1": "1 66795U 25278E   25355.25001157 -.02005214  00000+0 -28355-1 0  9997", "line2": "2 66795  42.9990 200.5147 0001599 270.4829 187.3272 15.59214635  4222"}}, "geometry": {"type": "Point", "coordinates": [174.72147513867685, -20.497288502317538]}}, {"type": "Feature", "properties": {"norad_id": 66796, "name": "STARLINK-35964", "group": "last-30-days", "lat": -33.073483743016254, "lon": 152.25551950982992, "alt_km": 328.5347743057264, "timestamp": "2025-12-21T14:40:46.634324+00:00", "meta": {"OBJECT_NAME": "STARLINK-35964", "OBJECT_ID": "2025-278F", "EPOCH": "2025-12-20T22:13:35.463360", "MEAN_MOTION": 15.80922098, "ECCENTRICITY": 0.0002241, "INCLINATION": 42.991, "RA_OF_ASC_NODE": 200.8079, "ARG_OF_PERICENTER": 285.0479, "MEAN_ANOMALY": 75.0144, "EPHEMERIS_TYPE": 0, "CLASSIFICATION_TYPE": "U", "NORAD_CAT_ID": 66796, "ELEMENT_SET_NO": 999, "REV_AT_EPOCH": 314, "BSTAR": 0.00098133, "MEAN_MOTION_DOT": 0.00200498, "MEAN_MOTION_DDOT": 0}, "tle": {"line1": "1 66796U 25278F   25354.92610490  .00200498  00000+0  98133-3 0  9997", "line2": "2 66796  42.9910 200.8079 0002241 285.0479  75.0144 15.80922098  3144"}}, "geometry": {"type": "Point", "coordinates": [152.25551950982992, -33.073483743016254]}}, {"type": "Feature", "properties": {"norad_id": 66797, "name": "STARLINK-36099", "group": "last-30-days", "lat": -18.07673228922818, "lon": 177.8597397610257, "alt_km": 395.95360410543617, "timestamp": "2025-12-21T14:40:46.634334+00:00", "meta": {"OBJECT_NAME": "STARLINK-36099", "OBJECT_ID": "2025-278G", "EPOCH": "2025-12-21T06:00:00.999648", "MEAN_MOTION": 15.592164, "ECCENTRICITY": 0.00015859, "INCLINATION": 42.9995, "RA_OF_ASC_NODE": 200.505, "ARG_OF_PERICENTER": 267.1887, "MEAN_ANOMALY": 194.4551, "EPHEMERIS_TYPE": 0, "CLASSIFICATION_TYPE": "U", "NORAD_CAT_ID": 66797, "ELEMENT_SET_NO": 999, "REV_AT_EPOCH": 438, "BSTAR": -0.028418903, "MEAN_MOTION_DOT": -0.02009294, "MEAN_MOTION_DDOT": 0}, "tle": {"line1": "1 66797U 25278G   25355.25001157 -.02009294  00000+0 -28419-1 0  9992", "line2": "2 66797  42.9995 200.5050 0001585 267.1887 194.4551 15.59216400  4382"}}, "geometry": {"type": "Point", "coordinates": [177.8597397610257, -18.07673228922818]}}, {"type": "Feature", "properties": {"norad_id": 66798, "name": "STARLINK-36041", "group": "last-30-days", "lat": -16.847557008265262, "lon": 179.39460307414075, "alt_km": 395.83944158869144, "timestamp": "2025-12-21T14:40:46.634346+00:00", "meta": {"OBJECT_NAME": "STARLINK-36041", "OBJECT_ID": "2025-278H", "EPOCH": "2025-12-21T06:00:00.999648", "MEAN_MOTION": 15.59217491, "ECCENTRICITY": 0.00014999, "INCLINATION": 42.9993, "RA_OF_ASC_NODE": 200.4998, "ARG_OF_PERICENTER": 270.3007, "MEAN_ANOMALY": 193.2604, "EPHEMERIS_TYPE": 0, "CLASSIFICATION_TYPE": "U", "NORAD_CAT_ID": 66798, "ELEMENT_SET_NO": 999, "REV_AT_EPOCH": 416, "BSTAR": -0.028446208, "MEAN_MOTION_DOT": -0.02010992, "MEAN_MOTION_DDOT": 0}, "tle": {"line1": "1 66798U 25278H   25355.25001157 -.02010992  00000+0 -28446-1 0  9990", "line2": "2 66798  42.9993 200.4998 0001499 270.3007 193.2604 15.59217491  4168"}}, "geometry": {"type": "Point", "coordinates": [179.39460307414075, -16.847557008265262]}}]}